{
  "posts": [
    {
      "id": 1,
      "title": "~SBAE 130000Z 10007KT 9999 FEW045TCU BKN100 25/22 Q1013; ~SBAR 130000Z "
    }
  ],
  "profile": {
    "name": "typicode"
  }
}
