{
  "posts": [
    {
    "~SBAE 130000Z 10007KT 9999 FEW045TCU BKN100 25/22 Q1013; ~SBAR 130000Z 09011KT 9999 FEW017 27/23 Q1012; ~SBAU 130000Z 18005KT 9999 TS VCSH FEW025 FEW045CB SCT080 26/23 Q1012; ~SBAX 130000Z AUTO 22004KT 9999 // SCT029/// BKN230/// 23/19 Q////; ~SBBE 130000Z 08003KT 9999 SCT030 SCT080 25/24 Q1011; ~SBBG 130000Z AUTO 12009KT CAVOK 19/15 Q1017; ~SBBH 130000Z 10008KT CAVOK 24/18 Q1016; ~SBBI 130000Z 14010KT 9999 VCTS BKN012 FEW045CB 23/21 Q1018; ~SBBR 130000Z 36003KT 9999 VCTS FEW040 FEW045CB 23/20 Q1017; ~SBBU 130000Z 04003KT 9999 VCTS FEW045CB 26/22 Q1014; ~SBBV 130000Z 10006KT CAVOK 27/21 Q1010; ~^SBCA 122356Z 11008KT 9999 FEW015 BKN080 21/20 Q1015; ~SBCF 130000Z 09006KT CAVOK 24/20 Q1016; ~SBCG 130000Z 00000KT 8000 -TSRA SCT020 BKN030 FEW040CB BKN100 21/20 Q1014 RERA; ~SBCH 130000Z 11018KT 9999 FEW020 SCT080 24/19 Q1014; ~SBCI 130000Z AUTO VRB02KT CAVOK 26/25 Q1012; ~SBCJ 122300Z 00000KT CAVOK 22/21 Q1014; ~SBCT 130000Z 14011KT 9999 SCT007 22/21 Q1018; ~SBCY 130000Z 07002KT 9999 FEW020 SCT100 28/24 Q1010; ~^SBCZ 122245Z 35004KT 9999 FEW030 SCT100 30/23 Q1007; ~SBDB 130000Z AUTO 17008KT CAVOK 26/22 Q1012; ~SBDN 130000Z 35001KT CAVOK 24/22 Q1012; ~SBEG 130000Z 00000KT 9999 FEW020 SCT100 26/24 Q1010; ~SBFI 130000Z 13001KT 9999 SCT020 BKN080 22/22 Q1012; ~SBFL 130000Z 19011KT CAVOK 27/21 Q1013; ~SBFN 130000Z AUTO 10003KT 9999 FEW022 24/21 Q1014; ~SBFZ 130000Z 07007KT 9999 SCT020 27/23 Q1012; ~SBGL 130000Z 33007KT 9999 VCTS FEW040 FEW050CB 27/23 Q1010; ~SBGO 130000Z VRB02KT 9999 FEW040 24/20 Q1015; ~SBGR 130000Z 19003KT 9000 BKN013 OVC020 23/21 Q1016; ~^SBGV 122225Z 00000KT CAVOK 29/21 Q1010; ~SBGW 122200Z 17003KT 9999 SCT030 FEW035TCU 26/22 Q1012; ~SBIH 130000Z 08005KT 9999 FEW022 SCT080 27/25 Q1010; ~SBIL 130000Z 07005KT 9999 FEW020 27/23 Q1013; ~SBJA 122200Z 21006KT 9999 FEW010 FEW050TCU BKN070 26/23 Q1014; ~SBJH 130000Z 07002KT 9999 SCT020 BKN100 21/21 Q1015; ~SBJI 130000Z AUTO 07003KT CAVOK 27/24 Q1009; ~SBJP 130000Z 08006KT 050V110 9999 FEW022 26/22 Q1013; ~SBJV 130000Z 17003KT 9999 SCT025 SCT040 27/25 Q1013; ~SBKG 130000Z 08013KT 9999 BKN015 24/20 Q1014; ~SBKP 130000Z 12006KT CAVOK 23/21 Q1014; ~SBLO 130000Z 21006KT 9999 FEW040 27/21 Q1013; ~SBLP 130000Z AUTO /////KT ///V/// //// // ///////// ///// Q////; ~^SBMA 130015Z 16002KT CAVOK 25/25 Q1012; ~SBME 130000Z 07006KT CAVOK 26/22 Q1012; ~SBMG 130000Z 13006G20KT 110V170 9999 -RA VCTS FEW035CB OVC080 24/22 Q1012; ~SBMK 130000Z 10002KT CAVOK 25/21 Q1013; ~SBMO 130000Z 08004KT 9999 SCT017 24/23 Q1013; ~SBMQ 130000Z 05008KT 9999 SCT020 29/25 Q1010; ~SBMT 130000Z 14002KT 6000 BKN015 24/21 Q1015; ~SBMY 130000Z AUTO 01003KT 320V040 CAVOK 25/24 Q1010; ~SBNF 130000Z 15008KT 9999 SCT040 BKN100 28/24 Q1013; ~SBNM 130000Z AUTO 10005KT CAVOK 22/21 Q1014; ~SBPA 130000Z 14013KT 110V170 9000 BKN012 BKN020 BKN027 23/21 Q1015; ~SBPJ 130000Z 23002KT 9999 FEW025 BKN070 25/24 Q1011; ~SBPL 130000Z 10002KT CAVOK 27/20 Q1011; ~SBPS 130000Z 09007KT 9999 FEW020 26/21 Q1013; ~SBPV 130000Z 27002KT 9999 FEW030 25/24 Q1008; ~SBRB 130000Z 29005KT 9999 SCT020 BKN100 25/24 Q1008; ~SBRD 122200Z 09004KT 9999 FEW005 SCT020 BKN100 24/23 Q1011; ~SBRF 130000Z 05005KT 9999 SCT020 26/20 Q1012; ~SBRJ 130000Z 31005KT 270V350 9999 SCT025 29/25 Q1010; ~SBRP 130000Z 10005KT 9000 -RA FEW005 OVC080 23/22 Q1013 RETS; ~SBSG 130000Z 11006KT 9999 FEW020 25/23 Q1013; ~SBSJ 130000Z 21004KT 9999 SCT040 23/21 Q1015; ~SBSL 130000Z 05009KT 9999 FEW017 SCT080 27/24 Q1011; ~SBSM 130000Z 11012KT 9999 BKN020 23/20 Q1015; ~SBSN 130000Z 17004KT CAVOK 25/24 Q1010; ~SBSP 130000Z 16008KT 9999 FEW023 OVC040 23/20 Q1017; ~SBSR 130000Z 09004KT 9999 FEW025 SCT080 26/19 Q1013; ~SBSV 130000Z 08009KT 9999 FEW020 28/22 Q1012; ~SBTE 130000Z 19004KT 9999 VCTS FEW030CB 27/23 Q1010; ~^SBTF 122245Z 32005KT 9999 TS SCT010 FEW025CB OVC100 25/23 Q1009; ~SBTG 122200Z 34005KT 9999 FEW030 SCT090 26/24 Q1010; ~SBTK 130000Z AUTO 05004KT CAVOK 25/24 Q1009; ~^SBTT 130015Z 04002KT 9999 -RA SCT025 OVC080 24/23 Q1009; ~SBUG 122200Z 14009KT 9999 FEW030 BKN100 25/21 Q1013; ~SBUL 130000Z 13004KT CAVOK 23/20 Q1016; ~SBUR 130000Z 10003KT CAVOK 22/21 Q1016; ~SBVC 130000Z 11012KT 9999 SCT020 22/20 Q1016 RETS; ~SBVH 122300Z VRB01KT 9999 VCTS FEW030 FEW035CB BKN100 23/22 Q1011; ~SBVT 130000Z 04009KT CAVOK 26/22 Q1013; ~^SBZM 122225Z 31003KT 9999 SCT045 23/23 Q1012; ~SDAG 130000Z AUTO 09003KT 070V140 9999 OVC036 27/25 Q1011; ~SDIY 130000Z AUTO 10006KT CAVOK 24/23 Q1013; ~SNBR 130000Z AUTO 00000KT 9999 FEW001 22/22 Q1015; ~SNDV 130000Z AUTO 11005KT 9999 ///////// 24/20 Q1015; ~SNGI 130000Z AUTO 03005KT CAVOK 24/22 Q1012; ~SNHS 130000Z AUTO 05007KT CAVOK ///// Q1013; ~SNPD 130000Z AUTO VRB02KT CAVOK 22/21 Q1015; ~SNVB 130000Z AUTO 07006KT 050V110 9999 ///////// 26/23 Q1012; ~SNZR 130000Z AUTO 23002KT CAVOK 24/22 Q1014; ~SSKW 122200Z 27008KT 9999 FEW025TCU 31/24 Q1007; ~SWGN 130000Z AUTO 16008KT 9999 FEW023 25/22 Q1012; ~SWKO 130000Z AUTO 00000KT CAVOK 25/25 Q1009; ~SWLC 130000Z AUTO 24002KT 9999 -RA NSC 24/22 Q1013; ~SWPI 130000Z AUTO 11003KT CAVOK 26/25 Q1010;"
    }
  ],
  "profile": {
    "name": "typicode"
  }
}
